NORAD_CAT_ID,OBJECT_NAME,OBJECT_TYPE,EPOCH,MEAN_MOTION,ECCENTRICITY,INCLINATION,RA_OF_ASC_NODE,ARG_OF_PERICENTER,MEAN_ANOMALY,BSTAR,MEAN_MOTION_DOT,MEAN_MOTION_DDOT,TLE_LINE0,TLE_LINE1,TLE_LINE2,SEMIMAJOR_AXIS,PERIOD,APOGEE,PERIGEE,DECAYED
52309.0,STARLINK-3756,PAYLOAD,2023-12-17 14:32:25,15.08839823,0.0001355,53.2164,139.1948,70.9832,289.1306,0.00014281,1.986e-05,0.0,0 STARLINK-3756,1 52309U 22041BA  23351.60584903  .00001986  00000-0  14281-3 0  9990,2 52309  53.2164 139.1948 0001355  70.9832 289.1306 15.08839823 93110,6917.881,95.438,540.683,538.809,0.0
52309.0,STARLINK-3756,PAYLOAD,2023-12-17 17:43:11,15.08846488,0.0001373,53.217,138.5981,74.9876,285.1268,0.00014954,2.093e-05,0.0,0 STARLINK-3756,1 52309U 22041BA  23351.73832448  .00002093  00000-0  14954-3 0  9991,2 52309  53.2170 138.5981 0001373  74.9876 285.1268 15.08846488 93139,6917.861,95.437,540.675,538.776,0.0
52309.0,STARLINK-3756,PAYLOAD,2023-12-18 14:23:11,15.08846519,0.0001316,53.2167,134.7328,80.1611,279.953,0.00011064,1.474e-05,0.0,0 STARLINK-3756,1 52309U 22041BA  23352.59944346  .00001474  00000-0  11064-3 0  9998,2 52309  53.2167 134.7328 0001316  80.1611 279.9530 15.08846519 93263,6917.86,95.437,540.636,538.815,0.0
52309.0,STARLINK-3756,PAYLOAD,2023-12-18 15:58:34,15.08850901,0.0001495,53.2163,134.4364,72.8124,287.3032,9.2624e-05,1.187e-05,0.0,0 STARLINK-3756,1 52309U 22041BA  23352.66568183  .00001187  00000-0  92624-4 0  9990,2 52309  53.2163 134.4364 0001495  72.8124 287.3032 15.08850901 93272,6917.847,95.437,540.746,538.678,0.0
52309.0,STARLINK-3756,PAYLOAD,2023-12-19 14:13:59,15.0884147,0.0001354,53.215,130.2738,81.7656,278.349,3.1034e-05,2.06e-06,0.0,0 STARLINK-3756,1 52309U 22041BA  23353.59304504  .00000206  00000-0  31034-4 0  9997,2 52309  53.2150 130.2738 0001354  81.7656 278.3490 15.08841470 93415,6917.876,95.437,540.678,538.804,0.0
52309.0,STARLINK-3756,PAYLOAD,2023-12-19 15:49:22,15.08843699,0.0001381,53.2156,129.977,79.5609,280.5539,1.46e-05,-5.6e-07,0.0,0 STARLINK-3756,1 52309U 22041BA  23353.65928474 -.00000056  00000-0  14600-4 0  9996,2 52309  53.2156 129.9770 0001381  79.5609 280.5539 15.08843699 93420,6917.869,95.437,540.689,538.779,0.0
52309.0,STARLINK-3756,PAYLOAD,2023-12-20 14:04:46,15.08835676,0.0001472,53.2163,125.8113,86.3705,273.7455,-2.3555e-05,-6.63e-06,0.0,0 STARLINK-3756,1 52309U 22041BA  23354.58665112 -.00000663  00000-0 -23555-4 0  9990,2 52309  53.2163 125.8113 0001472  86.3705 273.7455 15.08835676 93560,6917.894,95.438,540.777,538.74,0.0
52309.0,STARLINK-3756,PAYLOAD,2023-12-21 13:55:33,15.08837884,0.0001819,53.2183,121.3547,113.0513,247.0672,0.0001055,1.391e-05,0.0,0 STARLINK-3756,1 52309U 22041BA  23355.58024745  .00001391  00000-0  10550-3 0  9999,2 52309  53.2183 121.3547 0001819 113.0513 247.0672 15.08837884 93719,6917.887,95.438,541.01,538.493,0.0
52309.0,STARLINK-3756,PAYLOAD,2023-12-22 13:46:20,15.08842063,0.0001305,53.2163,116.894,82.9643,277.1498,9.4937e-05,1.223e-05,0.0,0 STARLINK-3756,1 52309U 22041BA  23356.57384991  .00001223  00000-0  94937-4 0  9997,2 52309  53.2163 116.8940 0001305  82.9643 277.1498 15.08842063 93862,6917.874,95.437,540.642,538.836,0.0
52309.0,STARLINK-3756,PAYLOAD,2023-12-23 12:01:44,15.08842061,0.0001238,53.2163,112.7306,79.7209,280.3922,-2.523e-05,-6.89e-06,0.0,0 STARLINK-3756,1 52309U 22041BA  23357.50121493 -.00000689  00000-0 -25230-4 0  9994,2 52309  53.2163 112.7306 0001238  79.7209 280.3922 15.08842061 94003,6917.874,95.437,540.596,538.883,0.0
52309.0,STARLINK-3756,PAYLOAD,2023-12-23 13:37:07,15.08842591,0.0001287,53.2161,112.4327,90.5875,269.5265,7.3001e-06,-1.72e-06,0.0,0 STARLINK-3756,1 52309U 22041BA  23357.56745327 -.00000172  00000-0  73001-5 0  9994,2 52309  53.2161 112.4327 0001287  90.5875 269.5265 15.08842591 94013,6917.872,95.437,540.628,538.847,0.0
52309.0,STARLINK-3756,PAYLOAD,2023-12-23 15:12:30,15.0884589,0.0001356,53.2167,112.1346,72.4704,287.6436,1.6219e-05,-3e-07,0.0,0 STARLINK-3756,1 52309U 22041BA  23357.63369098 -.00000030  00000-0  16219-4 0  9999,2 52309  53.2167 112.1346 0001356  72.4704 287.6436 15.08845890 94021,6917.862,95.437,540.665,538.789,0.0
52309.0,STARLINK-3756,PAYLOAD,2023-12-24 13:27:54,15.08835018,0.0001255,53.2164,107.9754,68.6826,291.43,0.00024055,3.542e-05,0.0,0 STARLINK-3756,1 52309U 22041BA  23358.56105243  .00003542  00000-0  24055-3 0  9998,2 52309  53.2164 107.9754 0001255  68.6826 291.4300 15.08835018 94162,6917.896,95.438,540.629,538.892,0.0
52309.0,STARLINK-3756,PAYLOAD,2023-12-24 16:38:40,15.08853572,0.0001405,53.2169,107.3771,76.4918,283.623,0.00013982,1.939e-05,0.0,0 STARLINK-3756,1 52309U 22041BA  23358.69352368  .00001939  00000-0  13982-3 0  9999,2 52309  53.2169 107.3771 0001405  76.4918 283.6230 15.08853572 94188,6917.839,95.437,540.676,538.732,0.0
52309.0,STARLINK-3756,PAYLOAD,2023-12-25 11:43:18,15.08840373,0.0001319,53.2166,103.8099,77.9909,282.1231,0.00010003,1.304e-05,0.0,0 STARLINK-3756,1 52309U 22041BA  23359.48841398  .00001304  00000-0  10003-3 0  9990,2 52309  53.2166 103.8099 0001319  77.9909 282.1231 15.08840373 94303,6917.879,95.438,540.657,538.832,0.0
52309.0,STARLINK-3756,PAYLOAD,2023-12-25 13:18:41,15.08843226,0.0001442,53.2167,103.5127,69.9987,290.1161,0.00011631,1.564e-05,0.0,0 STARLINK-3756,1 52309U 22041BA  23359.55465247  .00001564  00000-0  11631-3 0  9999,2 52309  53.2167 103.5127 0001442  69.9987 290.1161 15.08843226 94319,6917.871,95.437,540.733,538.738,0.0
52309.0,STARLINK-3756,PAYLOAD,2023-12-25 14:54:04,15.08846282,0.0001544,53.2163,103.2148,67.4303,292.6852,0.00015508,2.181e-05,0.0,0 STARLINK-3756,1 52309U 22041BA  23359.62089062  .00002181  00000-0  15508-3 0  9997,2 52309  53.2163 103.2148 0001544  67.4303 292.6852 15.08846282 94323,6917.861,95.437,540.794,538.658,0.0
52309.0,STARLINK-3756,PAYLOAD,2023-12-26 11:34:04,15.08848497,0.0001314,53.2174,99.3464,137.4366,222.6728,-6.2649e-06,-3.88e-06,0.0,0 STARLINK-3756,1 52309U 22041BA  23360.48200156 -.00000388  00000-0 -62649-5 0  9991,2 52309  53.2174  99.3464 0001314 137.4366 222.6728 15.08848497 94452,6917.854,95.437,540.628,538.81,0.0
52309.0,STARLINK-3756,PAYLOAD,2023-12-26 13:09:21,15.09012363,0.0001717,53.2175,99.0482,160.6955,199.4102,0.0024316,0.00038808,0.0,0 STARLINK-3756,1 52309U 22041BA  23360.54816110  .00038808  00000-0  24316-2 0  9993,2 52309  53.2175  99.0482 0001717 160.6955 199.4102 15.09012363 94463,6917.354,95.427,540.406,538.031,0.0
52309.0,STARLINK-3756,PAYLOAD,2023-12-27 11:24:53,15.0882663,0.0001099,53.2168,94.8897,102.492,257.6195,-0.00018952,-3.302e-05,0.0,0 STARLINK-3756,1 52309U 22041BA  23361.47561389 -.00003302  00000-0 -18952-3 0  9994,2 52309  53.2168  94.8897 0001099 102.4920 257.6195 15.08826630 94601,6917.921,95.438,540.547,539.026,0.0
52309.0,STARLINK-3756,PAYLOAD,2023-12-27 13:00:15,15.08831924,0.0001162,53.2167,94.5912,97.6921,262.4203,-0.00015432,-2.742e-05,0.0,0 STARLINK-3756,1 52309U 22041BA  23361.54185012 -.00002742  00000-0 -15432-3 0  9994,2 52309  53.2167  94.5912 0001162  97.6921 262.4203 15.08831924 94619,6917.905,95.438,540.574,538.966,0.0
52309.0,STARLINK-3756,PAYLOAD,2023-12-27 17:46:25,15.08834514,9.39e-05,53.2167,93.6999,104.0275,256.0822,-6.9961e-05,-1.401e-05,0.0,0 STARLINK-3756,1 52309U 22041BA  23361.74056931 -.00001401  00000-0 -69961-4 0  9991,2 52309  53.2167  93.6999 0000939 104.0275 256.0822 15.08834514 94647,6917.897,95.438,540.412,539.113,0.0
52309.0,STARLINK-3756,PAYLOAD,2023-12-28 11:15:39,15.08839733,9.33e-05,53.2168,90.4315,70.7084,289.4009,-0.0002247,-3.862e-05,0.0,0 STARLINK-3756,1 52309U 22041BA  23362.46921088 -.00003862  00000-0 -22470-3 0  9991,2 52309  53.2168  90.4315 0000933  70.7084 289.4009 15.08839733 94753,6917.881,95.438,540.392,539.101,0.0
52309.0,STARLINK-3756,PAYLOAD,2023-12-29 11:06:27,15.08835331,9.96e-05,53.216,85.9689,68.8342,291.2757,0.00035294,5.333e-05,0.0,0 STARLINK-3756,1 52309U 22041BA  23363.46282249  .00005333  00000-0  35294-3 0  9992,2 52309  53.2160  85.9689 0000996  68.8342 291.2757 15.08835331 94900,6917.895,95.438,540.449,539.071,0.0
52309.0,STARLINK-3756,PAYLOAD,2023-12-30 12:32:37,15.08842434,0.000119,53.2161,81.2095,85.0722,275.0406,0.00015775,2.224e-05,0.0,0 STARLINK-3756,1 52309U 22041BA  23364.52266062  .00002224  00000-0  15775-3 0  9993,2 52309  53.2161  81.2095 0001190  85.0722 275.0406 15.08842434 95062,6917.873,95.437,540.561,538.915,0.0
52309.0,STARLINK-3756,PAYLOAD,2023-12-31 10:48:02,15.08839989,0.0001281,53.2157,77.0461,89.6846,270.4293,-0.0002026,-3.511e-05,0.0,0 STARLINK-3756,1 52309U 22041BA  23365.45002351 -.00003511  00000-0 -20260-3 0  9992,2 52309  53.2157  77.0461 0001281  89.6846 270.4293 15.08839989 95205,6917.88,95.438,540.632,538.859,0.0
52309.0,STARLINK-3756,PAYLOAD,2023-12-31 13:58:48,15.08847663,0.0001329,53.2168,76.4509,93.4819,266.6325,-4.7512e-05,-1.044e-05,0.0,0 STARLINK-3756,1 52309U 22041BA  23365.58250341 -.00001044  00000-0 -47512-4 0  9999,2 52309  53.2168  76.4509 0001329  93.4819 266.6325 15.08847663 95222,6917.857,95.437,540.641,538.803,0.0
52309.0,STARLINK-3756,PAYLOAD,2024-01-01 12:14:12,15.08844426,0.0001298,53.2171,72.2897,91.3565,268.7576,0.00012353,1.679e-05,0.0,0 STARLINK-3756,1 52309U 22041BA  24001.50986361  .00001679  00000-0  12353-3 0  9993,2 52309  53.2171  72.2897 0001298  91.3565 268.7576 15.08844426 95360,6917.867,95.437,540.63,538.834,0.0
52309.0,STARLINK-3756,PAYLOAD,2024-01-02 04:08:03,15.08838825,0.0001462,53.2167,69.3172,69.835,290.28,0.00013763,1.903e-05,0.0,0 STARLINK-3756,1 52309U 22041BA  24002.17226796  .00001903  00000-0  13763-3 0  9992,2 52309  53.2167  69.3172 0001462  69.8350 290.2800 15.08838825 95460,6917.884,95.438,540.76,538.738,0.0
52309.0,STARLINK-3756,PAYLOAD,2024-01-02 10:29:36,15.08840261,0.0001461,53.2166,68.1275,72.108,288.0071,0.00013684,1.891e-05,0.0,0 STARLINK-3756,1 52309U 22041BA  24002.43722751  .00001891  00000-0  13684-3 0  9991,2 52309  53.2166  68.1275 0001461  72.1080 288.0071 15.08840261 95503,6917.88,95.438,540.755,538.734,0.0
